UNKNOWN                 
1 81845U          25310.30851351  .00003845  00000+0  42800-3 0  9999
2 81845  97.6760 138.6444 0089702  65.2686 110.2016 14.84766490644118
UNKNOWN                 
1 81864U          25307.31072739  .00001414  00000+0  58018-3 0  9990
2 81864  65.6697 158.9967 0761004  30.2743 334.0067 13.32256519545587
UNKNOWN                 
1 81865U          25309.56975963  .00002043  00000+0  16806-2 0  9998
2 81865  82.8060  57.3763 0063762 111.6066 266.4600 13.87847909603391
UNKNOWN                 
1 81893U          25307.40171453  .00001252  00000+0  13256-2 0  9999
2 81893 100.0435 288.5591 0021378  10.9986 349.1626 13.76559948598668
UNKNOWN                 
1 81899U          25309.74034759  .00001818  00000+0  42963-2 0  9996
2 81899 102.4167  44.8861 0177477 290.1821  68.0277 13.20028712574108
UNKNOWN                 
1 81921U          25299.33746147  .00001301  00000+0  54748-3 0  9998
2 81921  65.7062 160.7212 0849516 134.9826 232.3358 13.14903195 19556
UNKNOWN                 
1 81946U          25307.78848684  .00000122  00000+0  57489-3 0  9998
2 81946  66.4192 227.5617 0669539  10.0883  18.9536 12.42559229543045
UNKNOWN                 
1 81947U          25307.18324589  .00004264  00000+0  41018-3 0  9998
2 81947  66.0739 278.4867 0382374 167.3884 193.7131 14.52105227625274
UNKNOWN                 
1 81964U          25308.55374828  .00000271  00000+0  25527-3 0  9991
2 81964  66.5861 353.6141 0029672 118.6239 241.7831 13.95759086608712
UNKNOWN                 
1 81969U          25308.58841294  .00009324  00000+0  57408-3 0  9996
2 81969  86.6877 169.9700 0004519 352.5048   7.6121 15.09866955434412
UNKNOWN                 
1 81995U          25310.37365491  .00012482  00000+0  23554-2 0  9998
2 81995  65.7468 219.1071 0520771 314.9067  41.0828 14.03195864599123
UNKNOWN                 
1 82043U          25310.25539107  .00006591  00000+0  18257-2 0  9995
2 82043  97.9268 102.0213 0232738 193.0148 166.4967 14.32149716568624
UNKNOWN                 
1 82051U          25310.03382016  .00005881  00000+0  19711-2 0  9992
2 82051  98.7501  35.0029 0091825   8.7222 351.5532 14.35293581567141
UNKNOWN                 
1 82073U          25309.47474772  .00002290  00000+0  59141-3 0  9996
2 82073  97.7567  29.1383 0208748  41.7849 319.9069 14.38566080569762
UNKNOWN                 
1 82139U          25310.44611004  .00003471  00000+0  17489-2 0  9999
2 82139  99.0273  17.8938 0084757 145.4109 215.2618 14.15160237474983
UNKNOWN                 
1 82162U          25309.02281507  .00003733  00000+0  55811-2 0  9990
2 82162 100.4780 231.3651 0064361 325.2644  34.4295 13.53164424499202
UNKNOWN                 
1 82180U          25309.65502065  .00028034  00000+0  36351-2 0  9993
2 82180  65.6570  33.1430 0329231 236.0461 120.8945 14.49368335596371
UNKNOWN                 
1 82189U          25307.75056272  .00000340  00000+0  12813-3 0  9993
2 82189  74.0325 119.8038 0017133 317.8661  42.1173 14.35164649626823
UNKNOWN                 
1 82199U          25307.63185479  .00000630  00000+0  53409-3 0  9991
2 82199  82.9649 263.2807 0037387 144.5959 341.0807 13.85712752604275
UNKNOWN                 
1 82205U          25308.41113488  .00004179  00000+0  11944-2 0  9996
2 82205  63.0121 354.1594 0494731 288.9413  65.8644 13.92845314602669
UNKNOWN                 
1 82223U          25310.41169032  .00003307  00000+0  18049-2 0  9990
2 82223  99.3190 194.9678 0069340  85.4780 275.4307 14.11572196443666
UNKNOWN                 
1 82250U          25301.70625250  .00004674  00000+0  24508-2 0  9996
2 82250  98.9048 207.3433 0073200 320.9961  67.4133 14.13330554610270
UNKNOWN                 
1 82272U          25309.57729568  .00000265  00000+0  96356-3 0  9993
2 82272  67.5243 268.0324 0753020 130.4675 236.4509 12.33498420267356
UNKNOWN                 
1 82295U          25309.55036324  .00001555  00000+0  56719-3 0  9999
2 82295  66.6200 245.9932 0129908 248.5318 110.1886 14.31184947574409
UNKNOWN                 
1 82303U          25308.28001708  .00033105  00000+0  29366-1 0  9998
2 82303  81.9103  36.3018 0065819 133.9170 284.5082 13.83632388509103
UNKNOWN                 
1 82311U          25310.41618840  .00000772  00000+0  11481-2 0  9990
2 82311  99.4371   5.8946 0108692  40.1798 320.7313 13.54473270545400
UNKNOWN                 
1 82363U          25305.63176466  .00000530  00000+0  91703-3 0  9996
2 82363  66.9348 281.9851 0459594 192.2796 166.6735 13.15574703284853
UNKNOWN                 
1 82369U          25307.31599646  .00000177  00000+0  14921-3 0  9992
2 82369  98.9015 323.5758 0084371  87.9722 273.1101 13.98129916551660
UNKNOWN                 
1 82381U          25310.58439374  .00034091  00000+0  46805-2 0  9997
2 82381  98.3977 173.7321 0008369 272.1625  87.8626 14.78244060505465
UNKNOWN                 
1 82402U          25306.89339259  .00006188  00000+0  46042-3 0  9991
2 82402  86.6661 172.7963 0006746 327.2676  32.8139 15.02776769448486
UNKNOWN                 
1 82432U          25302.75892794  .00003737  00000+0  79690-3 0  9995
2 82432  74.0082  64.4530 0057022 239.9565 119.5937 14.58270752476495
UNKNOWN                 
1 82448U          25308.21409438  .00007480  00000+0  55328-3 0  9999
2 82448  85.8744 219.8933 0011560  51.7476 308.4796 15.02985100431255
UNKNOWN                 
1 82453U          25309.15012855 -.00000025  00000+0  15292-3 0  9997
2 82453 102.1705 265.5540 0093709 276.7665  82.2741 12.39699169541407
UNKNOWN                 
1 82458U          25297.77306600  .00003765  00000+0  17103-2 0  9995
2 82458  66.5148 311.0021 0044906  40.7381 319.7055 14.22335814603072
UNKNOWN                 
1 82484U          25308.51584254  .00000173  00000+0  30647-3 0  9991
2 82484  99.3607 332.1004 0043642 292.5310  67.1212 13.55769572585452
UNKNOWN                 
1 82494U          25306.84840307  .00020600  00000+0  24834-2 0  9997
2 82494  74.0075 101.1476 0005531 238.0677 121.9964 14.83775116 79044
UNKNOWN                 
1 82500U          25310.08750174  .00007077  00000+0  32366-2 0  9990
2 82500  70.9674  81.3965 0119450 172.4539 187.8421 14.18023953613752
UNKNOWN                 
1 82524U          25309.54707238  .00011741  00000+0  38065-2 0  9993
2 82524  73.2819 252.9804 0135675  20.6808  95.6768 14.33872972571701
UNKNOWN                 
1 82529U          25307.00739616  .00000139  00000+0  28112-3 0  9994
2 82529  99.7919  31.6520 0234701 337.6152 201.6716 13.41053076584418
UNKNOWN                 
1 82560U          25310.60975207  .00002053  00000+0  16902-2 0  9997
2 82560  99.9854 250.5036 0012573  36.7843 145.7167 13.90483454606843
UNKNOWN                 
1 82597U          25310.27547814  .00003751  00000+0  12641-2 0  9991
2 82597  66.7715 243.9870 0095651 332.6197  26.9881 14.35516669623747
UNKNOWN                 
1 82617U          25310.28759035  .00000992  00000+0  26466-3 0  9990
2 82617  74.0266 312.0580 0040116 265.0259  94.6321 14.49314207631540
UNKNOWN                 
1 82627U          25308.90416721  .00001001  00000+0  25992-2 0  9993
2 82627  82.4737 275.6162 0008169 190.3248 198.7176 13.16221031573855
UNKNOWN                 
1 82642U          25301.70487147  .00003096  00000+0  17268-2 0  9994
2 82642  98.9704 212.5670 0138374   3.2692 356.9349 14.06910870609800
UNKNOWN                 
1 82683U          25308.92428470  .00001745  00000+0  67002-3 0  9995
2 82683  98.1781  20.7080 0212022 146.4908 214.9893 14.19973265456908
UNKNOWN                 
1 82693U          25308.12952831  .00003029  00000+0  35339-2 0  9995
2 82693 100.5306 268.1037 0039359 115.3433 245.1793 13.69197168548471
UNKNOWN                 
1 82698U          25304.60572424  .00001918  00000+0  11704-2 0  9990
2 82698  61.6124 263.2711 0685300 273.8851  78.4129 13.29243009532771
UNKNOWN                 
1 82708U          25310.35986082  .00001234  00000+0  48462-2 0  9992
2 82708 102.1671 150.0061 0062833 358.6476   1.4437 12.90480210518829
UNKNOWN                 
1 82729U          25308.46776774  .00001303  00000+0  45066-2 0  9993
2 82729  67.9678 212.0513 0828345  37.1313 328.4139 12.17699556530543
UNKNOWN                 
1 82739U          25307.68524128  .00001819  00000+0  15291-2 0  9990
2 82739  99.0860 105.3759 0174142  37.9812 338.5228 13.82505047600712
UNKNOWN                 
1 82741U          25310.00857940  .00002775  00000+0  30318-2 0  9993
2 82741 102.8490 333.6444 0198834 348.2736  11.3802 13.65765672592066
UNKNOWN                 
1 82783U          25309.48627194  .00000962  00000+0  27876-2 0  9996
2 82783  90.3410  36.9874 0025994 207.1018 152.8754 13.08942496499484
UNKNOWN                 
1 82798U          25300.54598089  .00002999  00000+0  13288-2 0  9994
2 82798  82.9504 228.7921 0030286 316.3010 222.3841 14.22600605305802
UNKNOWN                 
1 82820U          25308.88072041  .00004068  00000+0  14404-2 0  9990
2 82820  99.7876 104.6266 0049852 124.0694 236.5233 14.34508041620201
UNKNOWN                 
1 82829U          25304.50476488  .00000035  00000+0  21351-2 0  9996
2 82829  65.0944 126.2556 0168315 345.0925  42.7807 11.29112830481311
UNKNOWN                 
1 82854U          25307.67330498  .00001591  00000+0  12516-2 0  9996
2 82854  82.6880  95.2368 0126555  32.0346 328.8428 13.87578696602380
UNKNOWN                 
1 82873U          25310.50136993  .00005486  00000+0  23905-2 0  9998
2 82873  99.9955 199.7323 0041682  23.7191 336.5893 14.23987451616075
UNKNOWN                 
1 82875U          25307.23379575  .00001393  00000+0  37085-3 0  9999
2 82875  98.6723 291.5650 0379328  36.5274 326.1142 14.14994751538880
UNKNOWN                 
1 82893U          25310.04136217  .00010886  00000+0  41604-2 0  9994
2 82893  98.9642  63.9804 0027150 153.9292 206.3263 14.30657682418722
